{"_default": { "5": {"norad_id": "43881", "name": "D-STAR ONE SPARROW", "tle1": "1 43881U 18111F   26165.39748497  .00147075  00000-0  10338-2 0  9998", "tle2": "2 43881  97.6125 105.9738 0004384 109.0587 251.1152 15.73694682410933", "object_type": "PAYLOAD", "criticality_score": 9.0, "last_updated": "2026-06-14T17:46:05.057534+00:00", "maneuver_count": 0, "owner": "N/A"}, "6": {"norad_id": "43790", "name": "EAGLET 1", "tle1": "1 43790U 18099AJ  26165.40726882  .00004205  00000-0  24204-3 0  9993", "tle2": "2 43790  97.4235 215.1495 0010961   4.2136 355.9185 15.12922286411915", "object_type": "PAYLOAD", "criticality_score": 9.0, "last_updated": "2026-06-14T17:46:05.057534+00:00", "maneuver_count": 0, "owner": "N/A"}, "7": {"norad_id": "43773", "name": "RANGE A", "tle1": "1 43773U 18099R   26165.07041278  .00005147  00000-0  29182-3 0  9992", "tle2": "2 43773  97.3966 207.7404 0010164   7.7238 352.4148 15.13364678412029", "object_type": "PAYLOAD", "criticality_score": 9.0, "last_updated": "2026-06-14T17:46:05.057534+00:00", "maneuver_count": 0, "owner": "N/A"}, "8": {"norad_id": "43770", "name": "AO-95", "tle1": "1 43770U 18099N   26165.12822934  .00011968  00000-0  45845-3 0  9993", "tle2": "2 43770  97.4390 225.3853 0008298   9.0334 351.1052 15.26654463412757", "object_type": "PAYLOAD", "criticality_score": 9.0, "last_updated": "2026-06-14T17:46:05.057534+00:00", "maneuver_count": 0, "owner": "N/A"}, "41": {"norad_id": "44339", "name": "PROX-1", "tle1": "1 44339U 19036A   26165.24564168  .00013018  00000-0  12702-2 0  9995", "tle2": "2 44339  23.9929 133.9015 0005534   2.9449 357.1083 14.90548290373031", "object_type": "PAYLOAD", "criticality_score": 9.0, "last_updated": "2026-06-14T17:46:05.057534+00:00", "maneuver_count": 0, "owner": "N/A"}, "69": {"norad_id": "43880", "name": "UWE-4", "tle1": "1 43880U 18111E   26165.30258735  .00032250  00000-0  66149-3 0  9999", "tle2": "2 43880  97.5859  93.5612 0006031 355.2213   4.8977 15.45969448410336", "object_type": "PAYLOAD", "criticality_score": 9.0, "last_updated": "2026-06-14T17:46:05.057534+00:00", "maneuver_count": 0, "owner": "N/A"}, "70": {"norad_id": "43804", "name": "SUOMI100", "tle1": "1 43804U 18099AY  26165.12913964  .00012822  00000-0  46634-3 0  9992", "tle2": "2 43804  97.4196 225.5335 0008364 292.2364  67.7988 15.28353020412956", "object_type": "PAYLOAD", "criticality_score": 9.0, "last_updated": "2026-06-14T17:46:05.057534+00:00", "maneuver_count": 0, "owner": "N/A"}, "71": {"norad_id": "43798", "name": "ASTROCAST-01", "tle1": "1 43798U 18099AS  26165.16148111  .00036778  00000-0  67053-3 0  9996", "tle2": "2 43798  97.4384 243.5643 0004918 214.5977 145.4955 15.49357365413966", "object_type": "PAYLOAD", "criticality_score": 9.0, "last_updated": "2026-06-14T17:46:05.057534+00:00", "maneuver_count": 0, "owner": "N/A"}, "72": {"norad_id": "43786", "name": "ITASAT", "tle1": "1 43786U 18099AE  26165.45262811  .00006068  00000-0  29240-3 0  9994", "tle2": "2 43786  97.4032 217.0186 0012397  10.0529 350.0951 15.19027057412499", "object_type": "PAYLOAD", "criticality_score": 9.0, "last_updated": "2026-06-14T17:46:05.057534+00:00", "maneuver_count": 0, "owner": "N/A"}, "73": {"norad_id": "43784", "name": "SNUGLITE", "tle1": "1 43784U 18099AC  26165.12959470  .00011763  00000-0  44475-3 0  9995", "tle2": "2 43784  97.3877 219.4395 0001292 317.8162  42.2978 15.27120086412858", "object_type": "PAYLOAD", "criticality_score": 9.0, "last_updated": "2026-06-14T17:46:05.057534+00:00", "maneuver_count": 0, "owner": "N/A"}, "74": {"norad_id": "43782", "name": "SNUSAT-2", "tle1": "1 43782U 18099AA  26165.11141786  .00008628  00000-0  38269-3 0  9995", "tle2": "2 43782  97.4062 218.5423 0008763 311.0758  48.9720 15.21797709412564", "object_type": "PAYLOAD", "criticality_score": 9.0, "last_updated": "2026-06-14T17:46:05.057534+00:00", "maneuver_count": 0, "owner": "N/A"}, "75": {"norad_id": "43772", "name": "OBJECT Q", "tle1": "1 43772U 18099Q   26165.20705436  .00476279  88317-4  15607-2 0  9994", "tle2": "2 43772  97.4150 246.4678 0009119 258.6699 101.3550 15.90488366414197", "object_type": "PAYLOAD", "criticality_score": 9.0, "last_updated": "2026-06-14T17:46:05.057534+00:00", "maneuver_count": 0, "owner": "N/A"}, "103": {"norad_id": "43768", "name": "AISTECHSAT-2", "tle1": "1 43768U 18099L   26165.38176255  .00004876  00000-0  26147-3 0  9990", "tle2": "2 43768  97.4296 213.4770 0003353 324.8000  35.3011 15.15424711411855", "object_type": "PAYLOAD", "criticality_score": 9.0, "last_updated": "2026-06-14T17:46:05.057534+00:00", "maneuver_count": 0, "owner": "N/A"}, "133": {"norad_id": "43879", "name": "ISAT", "tle1": "1 43879U 18111D   26165.34897928  .00092238  00000-0  93931-3 0  9995", "tle2": "2 43879  97.5886 100.3529 0000807  89.9668 270.1684 15.64832689410721", "object_type": "PAYLOAD", "criticality_score": 9.0, "last_updated": "2026-06-14T17:46:05.057534+00:00", "maneuver_count": 0, "owner": "N/A"}, "134": {"norad_id": "43809", "name": "CENTAURI-1", "tle1": "1 43809U 18099BD  26165.10454764  .00005813  00000-0  30253-3 0  9995", "tle2": "2 43809  97.4225 216.8899 0013376 345.1587  14.9252 15.16338432412030", "object_type": "PAYLOAD", "criticality_score": 9.0, "last_updated": "2026-06-14T17:46:05.057534+00:00", "maneuver_count": 0, "owner": "N/A"}, "135": {"norad_id": "43803", "name": "JY1SAT", "tle1": "1 43803U 18099AX  26165.15960116  .00016674  00000-0  51563-3 0  9991", "tle2": "2 43803  97.4134 227.9830 0004214 277.2169  82.8595 15.33568110413169", "object_type": "PAYLOAD", "criticality_score": 9.0, "last_updated": "2026-06-14T17:46:05.057534+00:00", "maneuver_count": 0, "owner": "N/A"}, "136": {"norad_id": "43792", "name": "ESEO", "tle1": "1 43792U 18099AL  26165.38646895  .00002124  00000-0  15675-3 0  9997", "tle2": "2 43792  97.3971 202.8943 0011624 349.2998  10.7980 15.04237769411385", "object_type": "PAYLOAD", "criticality_score": 9.0, "last_updated": "2026-06-14T17:46:05.057534+00:00", "maneuver_count": 0, "owner": "N/A"}, "196": {"norad_id": "43943", "name": "JILIN-01-09", "tle1": "1 43943U 19005B   26165.54763755  .00004694  00000-0  21799-3 0  9994", "tle2": "2 43943  97.4744 260.5324 0003810  99.7606 260.4060 15.20494372408749", "object_type": "PAYLOAD", "criticality_score": 9.0, "last_updated": "2026-06-14T17:46:05.057534+00:00", "maneuver_count": 0, "owner": "N/A"}, "197": {"norad_id": "43946", "name": "JILIN-01-10", "tle1": "1 43946U 19005E   26165.50317389  .00005439  00000-0  21627-3 0  9999", "tle2": "2 43946  97.4790 264.3070 0006583 290.8836  69.1697 15.25697119408909", "object_type": "PAYLOAD", "criticality_score": 9.0, "last_updated": "2026-06-14T17:46:05.057534+00:00", "maneuver_count": 0, "owner": "N/A"}, "236": {"norad_id": "43820", "name": "SEAHAWK-1", "tle1": "1 43820U 18099BQ  26165.11357342  .00009087  00000-0  39173-3 0  9990", "tle2": "2 43820  97.3963 217.6458 0007022 328.5622  31.5194 15.22763868412062", "object_type": "PAYLOAD", "criticality_score": 9.0, "last_updated": "2026-06-14T17:46:05.057534+00:00", "maneuver_count": 0, "owner": "N/A"}, "269": {"norad_id": "43834", "name": "OBJECT D", "tle1": "1 43834U 18102D   26165.53483682  .00075713  00000-0  70877-3 0  9998", "tle2": "2 43834  97.3446 254.5616 0003101  92.0499 268.1116 15.67001091416831", "object_type": "PAYLOAD", "criticality_score": 9.0, "last_updated": "2026-06-14T17:46:05.057534+00:00", "maneuver_count": 0, "owner": "N/A"}, "270": {"norad_id": "44312", "name": "OBJECT C", "tle1": "1 44312U 19032C   26165.47797448  .00010234  00000-0  32820-3 0  9997", "tle2": "2 44312  44.9761  11.8464 0006505 282.5921  77.4236 15.32577748387428", "object_type": "PAYLOAD", "criticality_score": 9.0, "last_updated": "2026-06-14T17:46:05.057534+00:00", "maneuver_count": 0, "owner": "N/A"}, "272": {"norad_id": "43812", "name": "GLOBAL-2", "tle1": "1 43812U 18099BG  26165.48812685  .00002665  00000-0  17394-3 0  9993", "tle2": "2 43812  97.3558 202.1139 0006767 149.2989 210.8637 15.08658993411505", "object_type": "PAYLOAD", "criticality_score": 9.0, "last_updated": "2026-06-14T17:46:05.057534+00:00", "maneuver_count": 0, "owner": "N/A"}, "322": {"norad_id": "44316", "name": "OBJECT G", "tle1": "1 44316U 19032G   26165.45220162  .00009814  00000-0  37201-3 0  9993", "tle2": "2 44316  44.9730  75.8674 0009789 234.6452 125.3516 15.27137507386663", "object_type": "PAYLOAD", "criticality_score": 9.0, "last_updated": "2026-06-14T17:46:05.057534+00:00", "maneuver_count": 0, "owner": "N/A"}, "395": {"norad_id": "43831", "name": "SAUDISAT 5A", "tle1": "1 43831U 18102A   26165.54539326  .00005227  00000-0  19361-3 0  9997", "tle2": "2 43831  97.3073 227.1770 0010856 137.1654 223.0433 15.28023771415275", "object_type": "PAYLOAD", "criticality_score": 9.0, "last_updated": "2026-06-14T17:46:05.057534+00:00", "maneuver_count": 0, "owner": "N/A"}, "396": {"norad_id": "43833", "name": "SAUDISAT 5B", "tle1": "1 43833U 18102C   26165.49920677  .00004915  00000-0  18076-3 0  9991", "tle2": "2 43833  97.3181 230.1965 0011507 139.6927 220.5168 15.28281288415389", "object_type": "PAYLOAD", "criticality_score": 9.0, "last_updated": "2026-06-14T17:46:05.057534+00:00", "maneuver_count": 0, "owner": "N/A"}, "418": {"norad_id": "44047", "name": "EGYPTSAT A", "tle1": "1 44047U 19008A   26165.49273823  .00001024  00000-0  16979-3 0  9997", "tle2": "2 44047  98.0164 230.2902 0001277  94.5294 265.6060 14.72306177392846", "object_type": "PAYLOAD", "criticality_score": 9.0, "last_updated": "2026-06-14T17:46:05.057534+00:00", "maneuver_count": 0, "owner": "N/A"}, "461": {"norad_id": "44078", "name": "EMISAT", "tle1": "1 44078U 19018A   26165.51065140  .00000435  00000-0  14092-3 0  9995", "tle2": "2 44078  98.4653 224.3257 0017567 223.1459 136.8356 14.43686840379675", "object_type": "PAYLOAD", "criticality_score": 9.0, "last_updated": "2026-06-14T17:46:05.057534+00:00", "maneuver_count": 0, "owner": "N/A"}, "633": {"norad_id": "43796", "name": "THEA", "tle1": "1 43796U 18099AQ  26165.46415251  .00017853  00000-0  52842-3 0  9992", "tle2": "2 43796  97.4446 235.1294 0005853 295.4094  64.6543 15.34934169412274", "object_type": "PAYLOAD", "criticality_score": 9.0, "last_updated": "2026-06-14T17:46:05.057534+00:00", "maneuver_count": 0, "owner": "N/A"}, "648": {"norad_id": "44340", "name": "NPSAT1", "tle1": "1 44340U 19036B   26165.47819521  .00004761  00000-0  66297-3 0  9992", "tle2": "2 44340  23.9992 235.4071 0007451 174.9278 185.1294 14.74560027372095", "object_type": "PAYLOAD", "criticality_score": 9.0, "last_updated": "2026-06-14T17:46:05.057534+00:00", "maneuver_count": 0, "owner": "N/A"}}}