OBJECT_NAME,OBJECT_ID,EPOCH,MEAN_MOTION,ECCENTRICITY,INCLINATION,RA_OF_ASC_NODE,ARG_OF_PERICENTER,MEAN_ANOMALY,EPHEMERIS_TYPE,CLASSIFICATION_TYPE,NORAD_CAT_ID,ELEMENT_SET_NO,REV_AT_EPOCH,BSTAR,MEAN_MOTION_DOT,MEAN_MOTION_DDOT
AISTECHSAT 2,2018-099L,2026-06-14T09:09:44.284320,15.15424711,.0003353,97.4296,213.4770,324.8000,35.3011,0,U,43768,999,41185,.26147E-3,.4876E-4,0
FOX-1CLIFF (AO-95),2018-099N,2026-06-14T03:04:39.014976,15.26654463,.00082983,97.4390,225.3853,9.0334,351.1052,0,U,43770,999,41275,.45844507E-3,.11968E-3,0
2018-099Q,2018-099Q,2026-06-14T04:58:09.496704,15.90488366,.00091185,97.4150,246.4678,258.6699,101.3550,0,U,43772,999,41419,.1560663E-2,.476279E-2,.88316943E-4
RANGE-A,2018-099R,2026-06-14T01:41:23.664192,15.13364678,.00101643,97.3966,207.7404,7.7238,352.4148,0,U,43773,999,41202,.2918231E-3,.5147E-4,0
SNUSAT-2,2018-099AA,2026-06-14T02:40:26.503104,15.21797709,.00087633,97.4062,218.5423,311.0758,48.9720,0,U,43782,999,41256,.38269478E-3,.8628E-4,0
SNUGLITE,2018-099AC,2026-06-14T03:06:36.982080,15.27120086,.00012917,97.3877,219.4395,317.8162,42.2978,0,U,43784,999,41285,.44474929E-3,.11763E-3,0
ITASAT,2018-099AE,2026-06-14T10:51:47.068704,15.19027057,.0012397,97.4032,217.0186,10.0529,350.0951,0,U,43786,999,41249,.2924E-3,.6068E-4,0
EAGLET-I,2018-099AJ,2026-06-14T09:46:28.026048,15.12922286,.0010961,97.4235,215.1495,4.2136,355.9185,0,U,43790,999,41191,.24204E-3,.4205E-4,0
ESEO,2018-099AL,2026-06-14T09:16:30.917280,15.04237769,.0011624,97.3971,202.8943,349.2998,10.7980,0,U,43792,999,41138,.15675E-3,.2124E-4,0
THEA,2018-099AQ,2026-06-14T11:08:22.776864,15.34934169,.0005853,97.4446,235.1294,295.4094,64.6543,0,U,43796,999,41227,.52842E-3,.17853E-3,0
ASTROCAST 0.1,2018-099AS,2026-06-14T03:52:31.967904,15.49357365,.00049185,97.4384,243.5643,214.5977,145.4955,0,U,43798,999,41396,.67052866E-3,.36778E-3,0
JY1SAT (JO-97),2018-099AX,2026-06-14T03:49:49.540224,15.33568110,.00042143,97.4134,227.9830,277.2169,82.8595,0,U,43803,999,41316,.5156255E-3,.16674E-3,0
SUOMI-100,2018-099AY,2026-06-14T03:05:57.664896,15.28353020,.00083638,97.4196,225.5335,292.2364,67.7988,0,U,43804,999,41295,.46634493E-3,.12822E-3,0
CENTAURI-1,2018-099BD,2026-06-14T02:30:32.916096,15.16338432,.00133755,97.4225,216.8899,345.1587,14.9252,0,U,43809,999,41203,.30253026E-3,.5813E-4,0
GLOBAL-2,2018-099BG,2026-06-14T11:42:54.159840,15.08658993,.0006767,97.3558,202.1139,149.2989,210.8637,0,U,43812,999,41150,.17394E-3,.2665E-4,0
SEAHAWK-1,2018-099BQ,2026-06-14T02:43:32.743488,15.22763868,.00070224,97.3963,217.6458,328.5622,31.5194,0,U,43820,999,41206,.39173108E-3,.9087E-4,0
SAUDISAT 5A,2018-102A,2026-06-14T13:05:21.977664,15.28023771,.0010856,97.3073,227.1770,137.1654,223.0433,0,U,43831,999,41527,.19361E-3,.5227E-4,0
SAUDISAT 5B,2018-102C,2026-06-14T11:58:51.464928,15.28281288,.0011507,97.3181,230.1965,139.6927,220.5168,0,U,43833,999,41538,.18076E-3,.4915E-4,0
2018-102D,2018-102D,2026-06-14T12:50:09.901248,15.67001091,.0003101,97.3446,254.5616,92.0499,268.1116,0,U,43834,999,41683,.70877E-3,.75713E-3,0
ISAT,2018-111D,2026-06-14T08:22:31.809792,15.64832689,.0000807,97.5886,100.3529,89.9668,270.1684,0,U,43879,999,41072,.93931E-3,.92238E-3,0
UWE-4,2018-111E,2026-06-14T07:15:43.547040,15.45969448,.0006031,97.5859,93.5612,355.2213,4.8977,0,U,43880,999,41033,.66149E-3,.3225E-3,0
D-STAR ONE (SPARROW),2018-111F,2026-06-14T09:32:22.701408,15.73694682,.0004384,97.6125,105.9738,109.0587,251.1152,0,U,43881,999,41093,.10338E-2,.147075E-2,0
JILIN-1 09,2019-005B,2026-06-14T13:08:35.884320,15.20494372,.000381,97.4744,260.5324,99.7606,260.4060,0,U,43943,999,40874,.21799E-3,.4694E-4,0
JILIN-1 10,2019-005E,2026-06-14T12:04:34.224096,15.25697119,.0006583,97.4790,264.3070,290.8836,69.1697,0,U,43946,999,40890,.21627E-3,.5439E-4,0
EGYPTSAT-A (MISRSAT-A),2019-008A,2026-06-14T11:49:32.583072,14.72306177,.0001277,98.0164,230.2902,94.5294,265.6060,0,U,44047,999,39284,.16979E-3,.1024E-4,0
EMISAT,2019-018A,2026-06-14T12:15:20.280960,14.43686840,.0017567,98.4653,224.3257,223.1459,136.8356,0,U,44078,999,37967,.14092E-3,.435E-5,0
JILIN-1 GAOFEN 3A,2019-032C,2026-06-14T11:28:16.995072,15.32577748,.0006505,44.9761,11.8464,282.5921,77.4236,0,U,44312,999,38742,.3282E-3,.10234E-3,0
WT 1B,2019-032G,2026-06-14T10:51:10.219968,15.27137507,.0009789,44.9730,75.8674,234.6452,125.3516,0,U,44316,999,38666,.37201E-3,.9814E-4,0
PROX-1,2019-036A,2026-06-14T05:53:43.441152,14.90548290,.0005534,23.9929,133.9015,2.9449,357.1083,0,U,44339,999,37303,.12702E-2,.13018E-3,0
NPSAT1,2019-036B,2026-06-14T11:28:36.066144,14.74560027,.0007451,23.9992,235.4071,174.9278,185.1294,0,U,44340,999,37209,.66297E-3,.4761E-4,0
